[{"OBJECT_NAME":"STARLINK-33908","OBJECT_ID":"2025-087D","EPOCH":"2026-03-09T17:02:36.324960","MEAN_MOTION":15.30171525,"ECCENTRICITY":0.00014676,"INCLINATION":53.1576,"RA_OF_ASC_NODE":219.3998,"ARG_OF_PERICENTER":42.0466,"MEAN_ANOMALY":318.0647,"EPHEMERIS_TYPE":0,"CLASSIFICATION_TYPE":"U","NORAD_CAT_ID":63700,"ELEMENT_SET_NO":999,"REV_AT_EPOCH":4920,"BSTAR":0.00033875145,"MEAN_MOTION_DOT":9.678e-5,"MEAN_MOTION_DDOT":0},{"OBJECT_NAME":"FENGYUN 1C DEB","OBJECT_ID":"1999-025EJQ","EPOCH":"2026-03-08T21:27:56.444256","MEAN_MOTION":15.23229897,"ECCENTRICITY":0.00101559,"INCLINATION":98.6645,"RA_OF_ASC_NODE":227.592,"ARG_OF_PERICENTER":263.6857,"MEAN_ANOMALY":96.3219,"EPHEMERIS_TYPE":0,"CLASSIFICATION_TYPE":"U","NORAD_CAT_ID":37470,"ELEMENT_SET_NO":999,"REV_AT_EPOCH":66762,"BSTAR":0.011057202,"MEAN_MOTION_DOT":0.00271626,"MEAN_MOTION_DDOT":0}]
